[{"OBJECT_NAME":"WEILAI 1R","OBJECT_ID":"2019-093F","EPOCH":"2026-03-09T22:33:48.244608","MEAN_MOTION":14.997592,"ECCENTRICITY":0.00116762,"INCLINATION":97.7939,"RA_OF_ASC_NODE":158.7373,"ARG_OF_PERICENTER":23.5076,"MEAN_ANOMALY":336.6679,"EPHEMERIS_TYPE":0,"CLASSIFICATION_TYPE":"U","NORAD_CAT_ID":44884,"ELEMENT_SET_NO":999,"REV_AT_EPOCH":33754,"BSTAR":0.00050142794,"MEAN_MOTION_DOT":6.146e-5,"MEAN_MOTION_DDOT":0},{"OBJECT_NAME":"STARLINK-4625","OBJECT_ID":"2022-105AM","EPOCH":"2026-03-09T15:58:26.969952","MEAN_MOTION":15.01261736,"ECCENTRICITY":0.00046582,"INCLINATION":97.6012,"RA_OF_ASC_NODE":310.181,"ARG_OF_PERICENTER":56.8765,"MEAN_ANOMALY":303.2906,"EPHEMERIS_TYPE":0,"CLASSIFICATION_TYPE":"U","NORAD_CAT_ID":53683,"ELEMENT_SET_NO":999,"REV_AT_EPOCH":19323,"BSTAR":-3.288093e-6,"MEAN_MOTION_DOT":-1.01e-6,"MEAN_MOTION_DDOT":0}]
